ORBCOMM FM37            
1 33064U 08031E   25197.39733667  .00000716  00000+0  12198-3 0  9993
2 33064  48.4384 204.7603 0004654 145.1066   0.6863 14.79835864918379
ORBCOMM FM40            
1 33065U 08031F   25197.46591529  .00001146  00000+0  16956-3 0  9995
2 33065  48.4404 187.9779 0005812 158.6169 341.3451 14.82112620918504
VESSELSAT 1             
1 37840U 11058C   25197.58177422  .00000330  00000+0  35153-4 0  9993
2 37840  19.9619 276.0254 0013677 149.2860 210.8346 14.11357693710461
ORBCOMM FM109           
1 40086U 14040A   25197.51094266  .00000169  00000+0  72690-4 0  9997
2 40086  47.0021 237.8003 0000846 155.9893 204.1032 14.58203946585344
ORBCOMM FM107           
1 40087U 14040B   25197.53813253  .00000231  00000+0  85921-4 0  9996
2 40087  47.0038 238.6257 0000678 343.1898  16.8965 14.58278434585428
ORBCOMM FM106           
1 40088U 14040C   25197.60430147  .00000477  00000+0  11124-3 0  9997
2 40088  47.0611  58.0573 0017065 204.7629 155.2444 14.69489302587807
ORBCOMM FM111           
1 40089U 14040D   25197.52565965  .00001190  00000+0  15701-3 0  9994
2 40089  47.0022 264.6420 0030880 330.9132  29.0044 14.86408771594599
ORBCOMM FM104           
1 40090U 14040E   25197.55874960  .00000262  00000+0  95974-4 0  9997
2 40090  47.0051 272.4904 0016554 335.5340  24.4758 14.56675384584909
